start=new Date('2023-02-10T00:00:00.000Z').valueOf();
sats=[{"APOAPSIS":"361.251","TLE_LINE1":"1 55287U 23010U   23040.91667824 -.00013696  00000-0 -11226-3 0  9997","MEAN_MOTION":"15.69936844","DECAY_DATE":null,"LAUNCH_DATE":"2023-01-19","ECCENTRICITY":"0.00032230","RA_OF_ASC_NODE":"8.7963","GP_ID":"224962406","OBJECT_TYPE":"PAYLOAD","CLASSIFICATION_TYPE":"U","OBJECT_NAME":"STARLINK-5341","PERIOD":"91.723","INCLINATION":"70.0007","SITE":"AFWTR","ARG_OF_PERICENTER":"270.8355","EPOCH":"2023-02-09T22:00:00.999936","BSTAR":"-0.00011226000000","RCS_SIZE":"LARGE","ELEMENT_SET_NO":"999","REV_AT_EPOCH":"130","EPHEMERIS_TYPE":"0","NORAD_CAT_ID":"55287","MEAN_ANOMALY":"146.4177","COUNTRY_CODE":"US","SEMIMAJOR_AXIS":"6737.215","MEAN_ELEMENT_THEORY":"SGP4","FILE":"3783241","TIME_SYSTEM":"UTC","TLE_LINE2":"2 55287  70.0007   8.7963 0003223 270.8355 146.4177 15.69936844  1305","MEAN_MOTION_DOT":"-0.00013696","OBJECT_ID":"2023-010U","MEAN_MOTION_DDOT":"0.0000000000000","REF_FRAME":"TEME","PERIAPSIS":"356.908","CENTER_NAME":"EARTH"},{"LAUNCH_DATE":"2023-01-19","RA_OF_ASC_NODE":"8.7885","ECCENTRICITY":"0.00035730","TLE_LINE1":"1 55288U 23010V   23040.91667824  .00104978  00000-0  86642-3 0  9994","APOAPSIS":"361.724","DECAY_DATE":null,"MEAN_MOTION":"15.69853997","CLASSIFICATION_TYPE":"U","OBJECT_NAME":"STARLINK-5311","SITE":"AFWTR","INCLINATION":"70.0005","PERIOD":"91.728","OBJECT_TYPE":"PAYLOAD","GP_ID":"224960664","ELEMENT_SET_NO":"999","RCS_SIZE":"LARGE","BSTAR":"0.00086642000000","NORAD_CAT_ID":"55288","EPHEMERIS_TYPE":"0","REV_AT_EPOCH":"130","MEAN_ANOMALY":"170.2076","ARG_OF_PERICENTER":"252.9389","EPOCH":"2023-02-09T22:00:00.999936","MEAN_MOTION_DDOT":"0.0000000000000","REF_FRAME":"TEME","OBJECT_ID":"2023-010V","CENTER_NAME":"EARTH","PERIAPSIS":"356.909","SEMIMAJOR_AXIS":"6737.452","COUNTRY_CODE":"US","MEAN_ELEMENT_THEORY":"SGP4","FILE":"3783241","MEAN_MOTION_DOT":"0.00104978","TLE_LINE2":"2 55288  70.0005   8.7885 0003573 252.9389 170.2076 15.69853997  1303","TIME_SYSTEM":"UTC"},{"CENTER_NAME":"EARTH","PERIAPSIS":"356.918","REF_FRAME":"TEME","MEAN_MOTION_DDOT":"0.0000000000000","OBJECT_ID":"2023-010W","MEAN_MOTION_DOT":"0.00070752","TIME_SYSTEM":"UTC","TLE_LINE2":"2 55289  70.0005   8.7924 0003392 266.9318 153.2961 15.69893694  1306","MEAN_ELEMENT_THEORY":"SGP4","FILE":"3783241","SEMIMAJOR_AXIS":"6737.338","COUNTRY_CODE":"US","MEAN_ANOMALY":"153.2961","EPHEMERIS_TYPE":"0","NORAD_CAT_ID":"55289","REV_AT_EPOCH":"130","RCS_SIZE":"LARGE","BSTAR":"0.00058596000000","ELEMENT_SET_NO":"999","EPOCH":"2023-02-09T22:00:00.999936","ARG_OF_PERICENTER":"266.9318","SITE":"AFWTR","PERIOD":"91.726","INCLINATION":"70.0005","CLASSIFICATION_TYPE":"U","OBJECT_NAME":"STARLINK-5320","OBJECT_TYPE":"PAYLOAD","GP_ID":"224960914","RA_OF_ASC_NODE":"8.7924","ECCENTRICITY":"0.00033920","LAUNCH_DATE":"2023-01-19","DECAY_DATE":null,"MEAN_MOTION":"15.69893694","TLE_LINE1":"1 55289U 23010W   23040.91667824  .00070752  00000-0  58596-3 0  9994","APOAPSIS":"361.488"},{"CLASSIFICATION_TYPE":"U","OBJECT_NAME":"STARLINK-5266","SITE":"AFWTR","INCLINATION":"70.0003","PERIOD":"91.723","OBJECT_TYPE":"PAYLOAD","GP_ID":"224962159","RA_OF_ASC_NODE":"8.7903","ECCENTRICITY":"0.00035630","LAUNCH_DATE":"2023-01-19","DECAY_DATE":null,"MEAN_MOTION":"15.69949803","TLE_LINE1":"1 55290U 23010X   23040.91667824 -.00024995  00000-0 -20649-3 0  9994","APOAPSIS":"361.443","CENTER_NAME":"EARTH","PERIAPSIS":"356.642","REF_FRAME":"TEME","MEAN_MOTION_DDOT":"0.0000000000000","OBJECT_ID":"2023-010X","MEAN_MOTION_DOT":"-0.00024995","TLE_LINE2":"2 55290  70.0003   8.7903 0003563 269.8908 151.5390 15.69949803  1301","TIME_SYSTEM":"UTC","SEMIMAJOR_AXIS":"6737.178","COUNTRY_CODE":"US","MEAN_ELEMENT_THEORY":"SGP4","FILE":"3783241","NORAD_CAT_ID":"55290","EPHEMERIS_TYPE":"0","REV_AT_EPOCH":"130","MEAN_ANOMALY":"151.5390","RCS_SIZE":"LARGE","ELEMENT_SET_NO":"999","BSTAR":"-0.00020649000000","EPOCH":"2023-02-09T22:00:00.999936","ARG_OF_PERICENTER":"269.8908"},{"OBJECT_TYPE":"PAYLOAD","GP_ID":"224961907","CLASSIFICATION_TYPE":"U","OBJECT_NAME":"STARLINK-5327","SITE":"AFWTR","PERIOD":"91.722","INCLINATION":"70.0006","DECAY_DATE":null,"MEAN_MOTION":"15.69961076","TLE_LINE1":"1 55291U 23010Y   23040.91667824 -.00043829  00000-0 -36407-3 0  9991","APOAPSIS":"361.319","RA_OF_ASC_NODE":"8.7915","ECCENTRICITY":"0.00034270","LAUNCH_DATE":"2023-01-19","MEAN_MOTION_DOT":"-0.00043829","TLE_LINE2":"2 55291  70.0006   8.7915 0003427 273.6822 147.1492 15.69961076  1305","TIME_SYSTEM":"UTC","SEMIMAJOR_AXIS":"6737.145","COUNTRY_CODE":"US","FILE":"3783241","MEAN_ELEMENT_THEORY":"SGP4","CENTER_NAME":"EARTH","PERIAPSIS":"356.702","REF_FRAME":"TEME","MEAN_MOTION_DDOT":"0.0000000000000","OBJECT_ID":"2023-010Y","EPOCH":"2023-02-09T22:00:00.999936","ARG_OF_PERICENTER":"273.6822","NORAD_CAT_ID":"55291","EPHEMERIS_TYPE":"0","REV_AT_EPOCH":"130","MEAN_ANOMALY":"147.1492","ELEMENT_SET_NO":"999","RCS_SIZE":"LARGE","BSTAR":"-0.00036407000000"},{"PERIAPSIS":"356.781","CENTER_NAME":"EARTH","OBJECT_ID":"2023-010Z","MEAN_MOTION_DDOT":"0.0000000000000","REF_FRAME":"TEME","TIME_SYSTEM":"UTC","TLE_LINE2":"2 55292  70.0006   8.7878 0003420 262.6578 161.1590 15.69935045  1305","MEAN_MOTION_DOT":"-0.00000614","COUNTRY_CODE":"US","SEMIMAJOR_AXIS":"6737.220","FILE":"3783241","MEAN_ELEMENT_THEORY":"SGP4","REV_AT_EPOCH":"130","NORAD_CAT_ID":"55292","EPHEMERIS_TYPE":"0","MEAN_ANOMALY":"161.1590","RCS_SIZE":"LARGE","BSTAR":"-0.00000333420000","ELEMENT_SET_NO":"999","EPOCH":"2023-02-09T22:00:00.999936","ARG_OF_PERICENTER":"262.6578","CLASSIFICATION_TYPE":"U","OBJECT_NAME":"STARLINK-5325","PERIOD":"91.724","INCLINATION":"70.0006","SITE":"AFWTR","GP_ID":"224961164","OBJECT_TYPE":"PAYLOAD","RA_OF_ASC_NODE":"8.7878","ECCENTRICITY":"0.00034200","LAUNCH_DATE":"2023-01-19","MEAN_MOTION":"15.69935045","DECAY_DATE":null,"APOAPSIS":"361.389","TLE_LINE1":"1 55292U 23010Z   23040.91667824 -.00000614  00000-0 -33342-5 0  9994"},{"COUNTRY_CODE":"US","SEMIMAJOR_AXIS":"6737.332","MEAN_ELEMENT_THEORY":"SGP4","FILE":"3783241","TLE_LINE2":"2 55293  70.0005   8.7893 0003536 266.2006 156.4847 15.69895796  1306","TIME_SYSTEM":"UTC","MEAN_MOTION_DOT":"0.00008002","OBJECT_ID":"2023-010AA","REF_FRAME":"TEME","MEAN_MOTION_DDOT":"0.0000000000000","PERIAPSIS":"356.815","CENTER_NAME":"EARTH","ARG_OF_PERICENTER":"266.2006","EPOCH":"2023-02-09T22:00:00.999936","RCS_SIZE":"LARGE","ELEMENT_SET_NO":"999","BSTAR":"0.00006833500000","REV_AT_EPOCH":"130","NORAD_CAT_ID":"55293","EPHEMERIS_TYPE":"0","MEAN_ANOMALY":"156.4847","GP_ID":"224961414","OBJECT_TYPE":"PAYLOAD","CLASSIFICATION_TYPE":"U","OBJECT_NAME":"STARLINK-5287","PERIOD":"91.726","INCLINATION":"70.0005","SITE":"AFWTR","APOAPSIS":"361.579","TLE_LINE1":"1 55293U 23010AA  23040.91667824  .00008002  00000-0  68335-4 0  9991","MEAN_MOTION":"15.69895796","DECAY_DATE":null,"LAUNCH_DATE":"2023-01-19","RA_OF_ASC_NODE":"8.7893","ECCENTRICITY":"0.00035360"},{"OBJECT_NAME":"STARLINK-5286","CLASSIFICATION_TYPE":"U","INCLINATION":"70.0005","PERIOD":"91.727","SITE":"AFWTR","GP_ID":"224961660","OBJECT_TYPE":"PAYLOAD","LAUNCH_DATE":"2023-01-19","ECCENTRICITY":"0.00038830","RA_OF_ASC_NODE":"8.7962","APOAPSIS":"361.864","TLE_LINE1":"1 55294U 23010AB  23040.91667824  .00102405  00000-0  84461-3 0  9991","MEAN_MOTION":"15.69877887","DECAY_DATE":null,"OBJECT_ID":"2023-010AB","MEAN_MOTION_DDOT":"0.0000000000000","REF_FRAME":"TEME","PERIAPSIS":"356.632","CENTER_NAME":"EARTH","COUNTRY_CODE":"US","SEMIMAJOR_AXIS":"6737.383","FILE":"3783241","MEAN_ELEMENT_THEORY":"SGP4","TIME_SYSTEM":"UTC","TLE_LINE2":"2 55294  70.0005   8.7962 0003883 253.0393 163.6121 15.69877887  1308","MEAN_MOTION_DOT":"0.00102405","BSTAR":"0.00084461000000","RCS_SIZE":"LARGE","ELEMENT_SET_NO":"999","REV_AT_EPOCH":"130","NORAD_CAT_ID":"55294","EPHEMERIS_TYPE":"0","MEAN_ANOMALY":"163.6121","ARG_OF_PERICENTER":"253.0393","EPOCH":"2023-02-09T22:00:00.999936"},{"RCS_SIZE":"LARGE","BSTAR":"0.00047340000000","ELEMENT_SET_NO":"999","MEAN_ANOMALY":"150.3186","EPHEMERIS_TYPE":"0","NORAD_CAT_ID":"55295","REV_AT_EPOCH":"130","ARG_OF_PERICENTER":"257.9945","EPOCH":"2023-02-09T22:00:00.999936","MEAN_MOTION_DDOT":"0.0000000000000","REF_FRAME":"TEME","OBJECT_ID":"2023-010AC","CENTER_NAME":"EARTH","PERIAPSIS":"356.842","MEAN_ELEMENT_THEORY":"SGP4","FILE":"3783241","SEMIMAJOR_AXIS":"6737.296","COUNTRY_CODE":"US","MEAN_MOTION_DOT":"0.00057061","TLE_LINE2":"2 55295  70.0006   8.8066 0003442 257.9945 150.3186 15.69908390  1301","TIME_SYSTEM":"UTC","LAUNCH_DATE":"2023-01-19","RA_OF_ASC_NODE":"8.8066","ECCENTRICITY":"0.00034420","TLE_LINE1":"1 55295U 23010AC  23040.91667824  .00057061  00000-0  47340-3 0  9994","APOAPSIS":"361.480","DECAY_DATE":null,"MEAN_MOTION":"15.69908390","SITE":"AFWTR","INCLINATION":"70.0006","PERIOD":"91.725","CLASSIFICATION_TYPE":"U","OBJECT_NAME":"STARLINK-5293","OBJECT_TYPE":"PAYLOAD","GP_ID":"224962407"},{"RCS_SIZE":"LARGE","ELEMENT_SET_NO":"999","BSTAR":"-0.00010563000000","REV_AT_EPOCH":"130","NORAD_CAT_ID":"55296","EPHEMERIS_TYPE":"0","MEAN_ANOMALY":"160.8668","ARG_OF_PERICENTER":"265.3976","EPOCH":"2023-02-09T22:00:00.999936","OBJECT_ID":"2023-010AD","REF_FRAME":"TEME","MEAN_MOTION_DDOT":"0.0000000000000","PERIAPSIS":"356.756","CENTER_NAME":"EARTH","COUNTRY_CODE":"US","SEMIMAJOR_AXIS":"6737.299","MEAN_ELEMENT_THEORY":"SGP4","FILE":"3783241","TLE_LINE2":"2 55296  70.0004   8.7845 0003575 265.3976 160.8668 15.69907275  1300","TIME_SYSTEM":"UTC","MEAN_MOTION_DOT":"-0.00012886","LAUNCH_DATE":"2023-01-19","RA_OF_ASC_NODE":"8.7845","ECCENTRICITY":"0.00035750","APOAPSIS":"361.573","TLE_LINE1":"1 55296U 23010AD  23040.91667824 -.00012886  00000-0 -10563-3 0  9990","MEAN_MOTION":"15.69907275","DECAY_DATE":null,"CLASSIFICATION_TYPE":"U","OBJECT_NAME":"STARLINK-5285","INCLINATION":"70.0004","PERIOD":"91.725","SITE":"AFWTR","GP_ID":"224960665","OBJECT_TYPE":"PAYLOAD"}];
